TDRS 3                  
1 19548U 88091B   26095.09341889 -.00000299  00000+0  00000+0 0  9996
2 19548  12.6575 341.4838 0042131 356.1833 200.3394  1.00267471124653
HST                     
1 20580U 90037B   26094.64776769  .00011124  00000+0  36493-3 0  9993
2 20580  28.4724 222.8665 0002193  61.0619 299.0197 15.29923140777298
TDRS 5                  
1 21639U 91054B   26094.42822816  .00000084  00000+0  00000+0 0  9994
2 21639  14.0809 354.3247 0008637 279.6049 265.4293  1.00279312126975
TDRS 6                  
1 22314U 93003B   26095.14036955 -.00000295  00000+0  00000+0 0  9997
2 22314  14.1820 357.6020 0005109 182.3761  18.0551  1.00267209121670
TDRS 7                  
1 23613U 95035B   26094.70311714 -.00000237  00000+0  00000+0 0  9993
2 23613  13.4081 348.6953 0009339  55.5374 130.8856  1.00268258112518
ISS (ZARYA)             
1 25544U 98067A   26095.03712624  .00009326  00000+0  17854-3 0  9994
2 25544  51.6327 302.0967 0006294 273.6206  86.4063 15.48778120560416
TERRA                   
1 25994U 99068A   26095.21172110  .00000683  00000+0  14810-3 0  9991
2 25994  97.9537 147.6258 0003671  97.2018 284.2865 14.61045304398955
TDRS 8                  
1 26388U 00034A   26094.92959999 -.00000193  00000+0  00000+0 0  9998
2 26388  12.5700  31.9344 0005848 329.8279 251.0016  1.00270460 94449
TIMED                   
1 26998U 01055B   26095.21126513  .00002666  00000+0  24655-3 0  9992
2 26998  74.0712  21.9362 0002571 241.1472 118.9454 14.95122308319916
AQUA                    
1 27424U 02022A   26095.24879583  .00001495  00000+0  30768-3 0  9998
2 27424  98.4220  63.1068 0001432 115.0459 357.1425 14.62042696272610
SORCE                   
1 27651U 03004A   26095.07438172  .00004673  00000+0  34791-3 0  9998
2 27651  39.9916 318.6852 0018504 249.2440 110.6371 15.03314846260895
AURA                    
1 28376U 04026A   26095.19814041  .00001515  00000+0  31724-3 0  9999
2 28376  98.3355  51.0815 0001430  94.2439 265.8924 14.61214321155552
SWIFT                   
1 28485U 04047A   26095.13807531  .00059894  00000+0  64554-3 0  9993
2 28485  20.5547  25.5513 0002920   6.6606 353.3877 15.61915789175405
THEMIS A                
1 30580U 07004A   26094.72101611 -.00000072  00000+0 -47111-2 0  9993
2 30580   7.2710 116.4650 8390751 184.5454 152.5287  0.87845388 40636
THEMIS D                
1 30797U 07004D   26095.12492198 -.00000119  00000+0  00000+0 0  9995
2 30797   6.9850  83.3809 8345617 220.3798 266.2447  0.87834639 40432
THEMIS E                
1 30798U 07004E   26094.95181140 -.00000111  00000+0  00000+0 0  9990
2 30798   4.9388 100.2014 8393749 204.6353 242.2381  0.88160071 65278
FGRST (GLAST)           
1 33053U 08029A   26095.01417099  .00005092  00000+0  19317-3 0  9995
2 33053  25.5841 352.4013 0008124 180.2323 179.8212 15.23548312984660
