[{"OBJECT_NAME":"TDRS 3","OBJECT_ID":"1988-091B","EPOCH":"2026-04-05T02:14:31.392096","MEAN_MOTION":1.00267471,"ECCENTRICITY":0.00421312,"INCLINATION":12.6575,"RA_OF_ASC_NODE":341.4838,"ARG_OF_PERICENTER":356.1833,"MEAN_ANOMALY":200.3394,"EPHEMERIS_TYPE":0,"CLASSIFICATION_TYPE":"U","NORAD_CAT_ID":19548,"ELEMENT_SET_NO":999,"REV_AT_EPOCH":12465,"BSTAR":0,"MEAN_MOTION_DOT":-2.99e-6,"MEAN_MOTION_DDOT":0},{"OBJECT_NAME":"HST","OBJECT_ID":"1990-037B","EPOCH":"2026-04-04T15:32:47.128416","MEAN_MOTION":15.2992314,"ECCENTRICITY":0.0002193,"INCLINATION":28.4724,"RA_OF_ASC_NODE":222.8665,"ARG_OF_PERICENTER":61.0619,"MEAN_ANOMALY":299.0197,"EPHEMERIS_TYPE":0,"CLASSIFICATION_TYPE":"U","NORAD_CAT_ID":20580,"ELEMENT_SET_NO":999,"REV_AT_EPOCH":77729,"BSTAR":0.00036493,"MEAN_MOTION_DOT":0.00011124,"MEAN_MOTION_DDOT":0},{"OBJECT_NAME":"TDRS 5","OBJECT_ID":"1991-054B","EPOCH":"2026-04-04T10:16:38.913024","MEAN_MOTION":1.00279312,"ECCENTRICITY":0.00086373,"INCLINATION":14.0809,"RA_OF_ASC_NODE":354.3247,"ARG_OF_PERICENTER":279.6049,"MEAN_ANOMALY":265.4293,"EPHEMERIS_TYPE":0,"CLASSIFICATION_TYPE":"U","NORAD_CAT_ID":21639,"ELEMENT_SET_NO":999,"REV_AT_EPOCH":12697,"BSTAR":0,"MEAN_MOTION_DOT":8.4e-7,"MEAN_MOTION_DDOT":0},{"OBJECT_NAME":"TDRS 6","OBJECT_ID":"1993-003B","EPOCH":"2026-04-05T03:22:07.929120","MEAN_MOTION":1.00267209,"ECCENTRICITY":0.00051091,"INCLINATION":14.182,"RA_OF_ASC_NODE":357.602,"ARG_OF_PERICENTER":182.3761,"MEAN_ANOMALY":18.0551,"EPHEMERIS_TYPE":0,"CLASSIFICATION_TYPE":"U","NORAD_CAT_ID":22314,"ELEMENT_SET_NO":999,"REV_AT_EPOCH":12167,"BSTAR":0,"MEAN_MOTION_DOT":-2.95e-6,"MEAN_MOTION_DDOT":0},{"OBJECT_NAME":"TDRS 7","OBJECT_ID":"1995-035B","EPOCH":"2026-04-04T16:52:29.320896","MEAN_MOTION":1.00268258,"ECCENTRICITY":0.00093397,"INCLINATION":13.4081,"RA_OF_ASC_NODE":348.6953,"ARG_OF_PERICENTER":55.5374,"MEAN_ANOMALY":130.8856,"EPHEMERIS_TYPE":0,"CLASSIFICATION_TYPE":"U","NORAD_CAT_ID":23613,"ELEMENT_SET_NO":999,"REV_AT_EPOCH":11251,"BSTAR":0,"MEAN_MOTION_DOT":-2.37e-6,"MEAN_MOTION_DDOT":0},{"OBJECT_NAME":"ISS (ZARYA)","OBJECT_ID":"1998-067A","EPOCH":"2026-04-05T00:53:27.707136","MEAN_MOTION":15.4877812,"ECCENTRICITY":0.00062949,"INCLINATION":51.6327,"RA_OF_ASC_NODE":302.0967,"ARG_OF_PERICENTER":273.6206,"MEAN_ANOMALY":86.4063,"EPHEMERIS_TYPE":0,"CLASSIFICATION_TYPE":"U","NORAD_CAT_ID":25544,"ELEMENT_SET_NO":999,"REV_AT_EPOCH":56041,"BSTAR":0.00017854288,"MEAN_MOTION_DOT":9.326e-5,"MEAN_MOTION_DDOT":0},{"OBJECT_NAME":"TERRA","OBJECT_ID":"1999-068A","EPOCH":"2026-04-05T05:04:52.703040","MEAN_MOTION":14.61045304,"ECCENTRICITY":0.00036711,"INCLINATION":97.9537,"RA_OF_ASC_NODE":147.6258,"ARG_OF_PERICENTER":97.2018,"MEAN_ANOMALY":284.2865,"EPHEMERIS_TYPE":0,"CLASSIFICATION_TYPE":"U","NORAD_CAT_ID":25994,"ELEMENT_SET_NO":999,"REV_AT_EPOCH":39895,"BSTAR":0.00014809783,"MEAN_MOTION_DOT":6.83e-6,"MEAN_MOTION_DDOT":0},{"OBJECT_NAME":"TDRS 8","OBJECT_ID":"2000-034A","EPOCH":"2026-04-04T22:18:37.439136","MEAN_MOTION":1.0027046,"ECCENTRICITY":0.00058488,"INCLINATION":12.57,"RA_OF_ASC_NODE":31.9344,"ARG_OF_PERICENTER":329.8279,"MEAN_ANOMALY":251.0016,"EPHEMERIS_TYPE":0,"CLASSIFICATION_TYPE":"U","NORAD_CAT_ID":26388,"ELEMENT_SET_NO":999,"REV_AT_EPOCH":9444,"BSTAR":0,"MEAN_MOTION_DOT":-1.93e-6,"MEAN_MOTION_DDOT":0},{"OBJECT_NAME":"TIMED","OBJECT_ID":"2001-055B","EPOCH":"2026-04-05T05:04:13.307232","MEAN_MOTION":14.95122308,"ECCENTRICITY":0.00025718,"INCLINATION":74.0712,"RA_OF_ASC_NODE":21.9362,"ARG_OF_PERICENTER":241.1472,"MEAN_ANOMALY":118.9454,"EPHEMERIS_TYPE":0,"CLASSIFICATION_TYPE":"U","NORAD_CAT_ID":26998,"ELEMENT_SET_NO":999,"REV_AT_EPOCH":31991,"BSTAR":0.00024654811,"MEAN_MOTION_DOT":2.666e-5,"MEAN_MOTION_DDOT":0},{"OBJECT_NAME":"AQUA","OBJECT_ID":"2002-022A","EPOCH":"2026-04-05T05:58:15.959712","MEAN_MOTION":14.62042696,"ECCENTRICITY":0.00014329,"INCLINATION":98.422,"RA_OF_ASC_NODE":63.1068,"ARG_OF_PERICENTER":115.0459,"MEAN_ANOMALY":357.1425,"EPHEMERIS_TYPE":0,"CLASSIFICATION_TYPE":"U","NORAD_CAT_ID":27424,"ELEMENT_SET_NO":999,"REV_AT_EPOCH":27261,"BSTAR":0.00030767904,"MEAN_MOTION_DOT":1.495e-5,"MEAN_MOTION_DDOT":0},{"OBJECT_NAME":"SORCE","OBJECT_ID":"2003-004A","EPOCH":"2026-04-05T01:47:06.580608","MEAN_MOTION":15.03314846,"ECCENTRICITY":0.00185048,"INCLINATION":39.9916,"RA_OF_ASC_NODE":318.6852,"ARG_OF_PERICENTER":249.244,"MEAN_ANOMALY":110.6371,"EPHEMERIS_TYPE":0,"CLASSIFICATION_TYPE":"U","NORAD_CAT_ID":27651,"ELEMENT_SET_NO":999,"REV_AT_EPOCH":26089,"BSTAR":0.00034790955,"MEAN_MOTION_DOT":4.673e-5,"MEAN_MOTION_DDOT":0},{"OBJECT_NAME":"AURA","OBJECT_ID":"2004-026A","EPOCH":"2026-04-05T04:45:19.331424","MEAN_MOTION":14.61214321,"ECCENTRICITY":0.00014303,"INCLINATION":98.3355,"RA_OF_ASC_NODE":51.0815,"ARG_OF_PERICENTER":94.2439,"MEAN_ANOMALY":265.8924,"EPHEMERIS_TYPE":0,"CLASSIFICATION_TYPE":"U","NORAD_CAT_ID":28376,"ELEMENT_SET_NO":999,"REV_AT_EPOCH":15555,"BSTAR":0.00031723985,"MEAN_MOTION_DOT":1.515e-5,"MEAN_MOTION_DDOT":0},{"OBJECT_NAME":"SWIFT","OBJECT_ID":"2004-047A","EPOCH":"2026-04-05T03:18:49.706784","MEAN_MOTION":15.61915789,"ECCENTRICITY":0.00029207,"INCLINATION":20.5547,"RA_OF_ASC_NODE":25.5513,"ARG_OF_PERICENTER":6.6606,"MEAN_ANOMALY":353.3877,"EPHEMERIS_TYPE":0,"CLASSIFICATION_TYPE":"U","NORAD_CAT_ID":28485,"ELEMENT_SET_NO":999,"REV_AT_EPOCH":17540,"BSTAR":0.00064553533,"MEAN_MOTION_DOT":0.00059894,"MEAN_MOTION_DDOT":0},{"OBJECT_NAME":"THEMIS A","OBJECT_ID":"2007-004A","EPOCH":"2026-04-04T17:18:15.791904","MEAN_MOTION":0.87845388,"ECCENTRICITY":0.83907512,"INCLINATION":7.271,"RA_OF_ASC_NODE":116.465,"ARG_OF_PERICENTER":184.5454,"MEAN_ANOMALY":152.5287,"EPHEMERIS_TYPE":0,"CLASSIFICATION_TYPE":"U","NORAD_CAT_ID":30580,"ELEMENT_SET_NO":999,"REV_AT_EPOCH":4063,"BSTAR":-0.0047110793,"MEAN_MOTION_DOT":-7.2e-7,"MEAN_MOTION_DDOT":0},{"OBJECT_NAME":"THEMIS D","OBJECT_ID":"2007-004D","EPOCH":"2026-04-05T02:59:53.259072","MEAN_MOTION":0.87834639,"ECCENTRICITY":0.83456173,"INCLINATION":6.985,"RA_OF_ASC_NODE":83.3809,"ARG_OF_PERICENTER":220.3798,"MEAN_ANOMALY":266.2447,"EPHEMERIS_TYPE":0,"CLASSIFICATION_TYPE":"U","NORAD_CAT_ID":30797,"ELEMENT_SET_NO":999,"REV_AT_EPOCH":4043,"BSTAR":0,"MEAN_MOTION_DOT":-1.19e-6,"MEAN_MOTION_DDOT":0},{"OBJECT_NAME":"THEMIS E","OBJECT_ID":"2007-004E","EPOCH":"2026-04-04T22:50:36.504960","MEAN_MOTION":0.88160071,"ECCENTRICITY":0.83937492,"INCLINATION":4.9388,"RA_OF_ASC_NODE":100.2014,"ARG_OF_PERICENTER":204.6353,"MEAN_ANOMALY":242.2381,"EPHEMERIS_TYPE":0,"CLASSIFICATION_TYPE":"U","NORAD_CAT_ID":30798,"ELEMENT_SET_NO":999,"REV_AT_EPOCH":6527,"BSTAR":0,"MEAN_MOTION_DOT":-1.11e-6,"MEAN_MOTION_DDOT":0},{"OBJECT_NAME":"FGRST (GLAST)","OBJECT_ID":"2008-029A","EPOCH":"2026-04-05T00:20:24.373536","MEAN_MOTION":15.23548312,"ECCENTRICITY":0.00081245,"INCLINATION":25.5841,"RA_OF_ASC_NODE":352.4013,"ARG_OF_PERICENTER":180.2323,"MEAN_ANOMALY":179.8212,"EPHEMERIS_TYPE":0,"CLASSIFICATION_TYPE":"U","NORAD_CAT_ID":33053,"ELEMENT_SET_NO":999,"REV_AT_EPOCH":98466,"BSTAR":0.00019317037,"MEAN_MOTION_DOT":5.092e-5,"MEAN_MOTION_DDOT":0}]
